ORBCOMM FM103           
1 40091U 14040F   25352.14066366  .00000427  00000+0  12743-3 0  9994
2 40091  47.0044 228.8437 0001494  28.4595 331.6372 14.58542996590956
ORBCOMM FM114           
1 41179U 15081A   25351.60936188  .00000277  00000+0  95429-4 0  9992
2 41179  47.0036 140.3083 0001747  97.1977 262.9107 14.58561684531242
ORBCOMM FM119           
1 41180U 15081B   25352.15361288  .00000466  00000+0  13569-3 0  9992
2 41180  47.0013  47.0950 0001401 216.8841 143.1948 14.58510739532577
ORBCOMM FM105           
1 41181U 15081C   25352.24598123  .00000187  00000+0  97197-4 0  9993
2 41181  47.0018  69.5915 0000864  56.2476 303.8487 14.45409427527377
ORBCOMM FM110           
1 41182U 15081D   25352.14724116  .00000652  00000+0  17507-3 0  9999
2 41182  47.0009 137.2664 0002652 305.0708  54.9929 14.58590908531191
ORBCOMM FM118           
1 41183U 15081E   25352.11323537  .00000515  00000+0  14599-3 0  9995
2 41183  47.0030 137.7258 0003235 270.3049  89.7466 14.58583258531293
ORBCOMM FM112           
1 41184U 15081F   25352.18442160  .00000538  00000+0  15072-3 0  9999
2 41184  47.0000  45.9236 0000652 122.5431 237.5518 14.58587446532521
ORBCOMM FM113           
1 41185U 15081G   25352.23019151  .00000651  00000+0  17487-3 0  9994
2 41185  47.0014  46.0636 0000643 159.6019 200.4893 14.58584195532518
